     2.11           N: GPS NAV DATA                         RINEX VERSION / TYPE
teqc  2018Dec12     gpsops              20220531 01:03:42UTCPGM / RUN BY / DATE
Linux 2.6.32-573.12.1.x86_64|x86_64|gcc -static|Linux 64|=+ COMMENT
CHPI                                    MARKER NAME         COMMENT
41609M003                               MARKER NUMBER       COMMENT
4164613.9484 -4162456.9866 -2445028.7316                    COMMENT
This data is provided as a public service by NASA/JPL.      COMMENT
No warranty is expressed or implied regarding suitability   COMMENT
for use.  For further information, contact:                 COMMENT
ggnops at jpl dot nasa dot gov                              COMMENT
                                                            END OF HEADER
30 22  5 30  0  0  0.0-5.296915769577D-04-1.250555214938D-12 0.000000000000D+00
    8.400000000000D+01-8.718750000000D+00 4.882346226460D-09-2.294338371237D+00
   -5.327165126801D-07 5.866664461792D-03 9.553506970406D-06 5.153764732361D+03
    8.640000000000D+04-4.284083843231D-08-6.424689677656D-01-4.097819328308D-08
    9.360011718858D-01 1.813437500000D+02-2.685098770490D+00-8.000333245992D-09
   -5.825242644738D-10 1.000000000000D+00 2.212000000000D+03 0.000000000000D+00
    2.000000000000D+00 0.000000000000D+00 3.725290298462D-09 8.400000000000D+01
    7.921800000000D+04 4.000000000000D+00
24 22  5 30  2  0  0.0 2.315971069038D-04-7.617018127348D-12 0.000000000000D+00
    1.300000000000D+01-8.937500000000D+00 5.260933424708D-09-2.429662373647D-01
   -4.395842552185D-07 1.249844871927D-02 8.400529623032D-06 5.153685998917D+03
    9.360000000000D+04-2.607703208923D-08-7.385800186738D-01 1.732259988785D-07
    9.342537074626D-01 2.008437500000D+02 8.164105930182D-01-8.473924401536D-09
   -7.171727302657D-10 1.000000000000D+00 2.212000000000D+03 0.000000000000D+00
    2.000000000000D+00 0.000000000000D+00 2.793967723846D-09 1.300000000000D+01
    8.641800000000D+04 4.000000000000D+00
 2 22  5 30  2  0  0.0-6.530615501106D-04 2.273736754432D-13 0.000000000000D+00
    6.600000000000D+01-1.165937500000D+02 4.392325815143D-09-3.948469219306D-01
   -6.398186087608D-06 2.041878248565D-02 6.381422281265D-06 5.153674121857D+03
    9.360000000000D+04-3.259629011154D-07 2.404515717411D+00 2.980232238770D-08
    9.660171582636D-01 2.643750000000D+02-1.416900828064D+00-8.391778122671D-09
    6.785996949726D-12 1.000000000000D+00 2.212000000000D+03 0.000000000000D+00
    2.000000000000D+00 0.000000000000D+00-1.769512891769D-08 6.600000000000D+01
    8.641800000000D+04 4.000000000000D+00
11 22  5 30  2  0  0.0-1.941015943885D-05 3.637978807092D-12 0.000000000000D+00
    1.390000000000D+02-1.275000000000D+02 4.334823419938D-09 1.627594808794D+00
   -6.860122084618D-06 4.012752324343D-04 7.003545761108D-06 5.153586223602D+03
    9.360000000000D+04-5.587935447693D-09 2.537274754832D+00-1.117587089539D-08
    9.631634571326D-01 2.475000000000D+02 2.823286803696D+00-7.969974838586D-09
   -5.821671067396D-11 1.000000000000D+00 2.212000000000D+03 0.000000000000D+00
    2.800000000000D+00 0.000000000000D+00-8.381903171539D-09 3.950000000000D+02
    8.641800000000D+04 4.000000000000D+00
 6 22  5 30  2  0  0.0 3.229160793126D-04 1.500666257925D-11 0.000000000000D+00
    7.800000000000D+01-1.263437500000D+02 3.809801550670D-09-3.255393536665D-01
   -6.807968020439D-06 2.537344349548D-03 6.347894668579D-06 5.153734973907D+03
    9.360000000000D+04-2.048909664154D-08 2.487659518056D+00-6.332993507385D-08
    9.872874590227D-01 2.669687500000D+02-8.547889468307D-01-7.778181135322D-09
   -7.714607058635D-11 1.000000000000D+00 2.212000000000D+03 0.000000000000D+00
    2.000000000000D+00 0.000000000000D+00 3.725290298462D-09 7.800000000000D+01
    8.641800000000D+04 4.000000000000D+00
12 22  5 30  2  0  0.0-2.231723628938D-04-5.798028723802D-12 0.000000000000D+00
    3.900000000000D+01 1.206250000000D+02 3.933020968967D-09-1.827198087186D+00
    6.316229701042D-06 8.647589478642D-03 7.528811693192D-06 5.153800647736D+03
    9.360000000000D+04 2.030283212662D-07 4.586010030068D-01 5.215406417847D-08
    9.695410455733D-01 2.398437500000D+02 1.302326289540D+00-7.722821686522D-09
    6.821712723145D-11 1.000000000000D+00 2.212000000000D+03 0.000000000000D+00
    2.000000000000D+00 0.000000000000D+00-1.257285475731D-08 3.900000000000D+01
    8.641800000000D+04 4.000000000000D+00
20 22  5 30  1 59 44.0 5.136989057064D-04-1.023181539495D-12 0.000000000000D+00
    2.000000000000D+01-3.734375000000D+01 4.819486465242D-09 4.995872306592D-01
   -1.903623342514D-06 4.780911142007D-03 1.058913767338D-05 5.153588453293D+03
    9.358400000000D+04 9.126961231232D-08-2.911448429445D+00 7.450580596924D-09
    9.435455837866D-01 1.699062500000D+02-3.121724773396D+00-7.987832725295D-09
    4.675194740627D-10 1.000000000000D+00 2.212000000000D+03 0.000000000000D+00
    2.000000000000D+00 0.000000000000D+00-8.381903171539D-09 2.000000000000D+01
    8.641800000000D+04 4.000000000000D+00
15 22  5 30  2  0  0.0-5.731126293540D-05 2.955857780762D-12 0.000000000000D+00
    1.890000000000D+02 1.581250000000D+01 5.902745873059D-09 6.646857560412D-01
    1.126900315285D-06 1.406498160213D-02 5.211681127548D-06 5.153783601761D+03
    9.360000000000D+04-9.499490261078D-08-1.835027386291D+00 1.229345798492D-07
    9.299039326771D-01 2.653437500000D+02 1.095507312551D+00-8.875012537039D-09
    6.321691895271D-11 1.000000000000D+00 2.212000000000D+03 0.000000000000D+00
    2.000000000000D+00 0.000000000000D+00-1.071020960808D-08 1.890000000000D+02
    8.641800000000D+04 4.000000000000D+00
19 22  5 30  2  0  0.0 1.638997346163D-04 5.002220859751D-12 0.000000000000D+00
    6.400000000000D+01 7.187500000000D+00 4.207318108830D-09-2.304701438603D+00
    7.506459951401D-07 9.259129990824D-03 8.568167686462D-08 5.153700796127D+03
    9.360000000000D+04 2.607703208923D-08 1.541704546228D+00 1.788139343262D-07
    9.773054364657D-01 3.825000000000D+02 2.072533299479D+00-8.135338869518D-09
    1.317912039184D-10 1.000000000000D+00 2.212000000000D+03 0.000000000000D+00
    2.000000000000D+00 0.000000000000D+00-1.583248376846D-08 6.400000000000D+01
    8.641800000000D+04 4.000000000000D+00
29 22  5 30  2  0  0.0-5.188323557377D-04-3.865352482535D-12 0.000000000000D+00
    1.700000000000D+01 9.062500000000D-01 4.138029508396D-09 1.755181333616D+00
    8.195638656616D-08 2.190115978010D-03 3.613531589508D-07 5.153699703217D+03
    9.360000000000D+04 5.215406417847D-08 1.510134209391D+00 5.960464477539D-08
    9.805419744805D-01 3.825312500000D+02 2.280342784653D+00-8.148553705684D-09
    8.357490980188D-11 1.000000000000D+00 2.212000000000D+03 0.000000000000D+00
    2.000000000000D+00 0.000000000000D+00-1.024454832077D-08 1.700000000000D+01
    8.641800000000D+04 4.000000000000D+00
28 22  5 30  2  0  0.0 3.485693596303D-04-7.389644451905D-12 0.000000000000D+00
    4.100000000000D+01 1.288437500000D+02 3.878018677901D-09 2.118857713740D+00
    6.614252924919D-06 1.655288424809D-02 7.679685950279D-06 5.153685028076D+03
    9.360000000000D+04 2.458691596985D-07 4.805829358769D-01 6.891787052155D-08
    9.685911099590D-01 2.296562500000D+02-1.277867373037D+00-7.519956093499D-09
    7.036007363663D-11 1.000000000000D+00 2.212000000000D+03 0.000000000000D+00
    2.000000000000D+00 6.300000000000D+01-1.117587089539D-08 4.100000000000D+01
    8.641800000000D+04 4.000000000000D+00
25 22  5 30  2  0  0.0 3.309948369861D-04 4.774847184308D-12 0.000000000000D+00
    5.200000000000D+01 1.261875000000D+02 4.150172871359D-09-2.131824801620D+00
    6.563961505890D-06 1.048967719544D-02 8.011236786842D-06 5.153673418045D+03
    9.360000000000D+04 7.636845111847D-08 3.806472436456D-01-1.192092895508D-07
    9.570643161303D-01 2.254062500000D+02 1.005750832531D+00-7.686391597634D-09
    9.071806448581D-11 1.000000000000D+00 2.212000000000D+03 0.000000000000D+00
    2.000000000000D+00 0.000000000000D+00 5.587935447693D-09 5.200000000000D+01
    8.641800000000D+04 4.000000000000D+00
13 22  5 30  2  0  0.0 3.205821849406D-04 6.821210263297D-12 0.000000000000D+00
    9.000000000000D+00-1.750000000000D+00 4.954134931034D-09 1.213645450759D+00
    1.490116119385D-08 5.938228336163D-03 4.984438419342D-06 5.153665903091D+03
    9.360000000000D+04-8.009374141693D-08-1.571602886197D+00 1.545995473862D-07
    9.682165707465D-01 2.891562500000D+02 9.164406946677D-01-8.216770832915D-09
   -1.064330047904D-10 1.000000000000D+00 2.212000000000D+03 0.000000000000D+00
    2.000000000000D+00 0.000000000000D+00-1.164153218269D-08 9.000000000000D+00
    8.641800000000D+04 4.000000000000D+00
 5 22  5 30  2  0  0.0-8.365884423256D-05-1.364242052659D-12 0.000000000000D+00
    8.100000000000D+01-2.781250000000D+01 4.429827377234D-09 2.096621089758D+00
   -1.439824700356D-06 6.014192476869D-03 1.043453812599D-05 5.153733634949D+03
    9.360000000000D+04-6.332993507385D-08-2.795576635148D+00-1.788139343262D-07
    9.611792281958D-01 1.804062500000D+02 1.028079057128D+00-7.707106746217D-09
    5.593090117511D-10 1.000000000000D+00 2.212000000000D+03 0.000000000000D+00
    2.000000000000D+00 0.000000000000D+00-1.117587089539D-08 8.100000000000D+01
    8.641800000000D+04 4.000000000000D+00
11 22  5 30  2 14 40.0-1.940643414855D-05 3.637978807092D-12 0.000000000000D+00
    1.400000000000D+02-1.282812500000D+02 4.329823211659D-09 1.756641153235D+00
   -6.925314664841D-06 4.013172583655D-04 6.835907697678D-06 5.153585721970D+03
    9.448000000000D+04-5.587935447693D-09 2.537267731363D+00-7.450580596924D-09
    9.631634030046D-01 2.496562500000D+02 2.822602264828D+00-7.970331996320D-09
   -5.571660653459D-11 1.000000000000D+00 2.212000000000D+03 0.000000000000D+00
    2.000000000000D+00 0.000000000000D+00-8.381903171539D-09 3.960000000000D+02
    8.731800000000D+04 4.000000000000D+00
